1 41616U 16040T   19039.71878772  .00001152  00000-0  48919-4 0  9992
2 41616  97.3900 106.8939 0011694 125.2090 235.0245 15.25037929146267
1 41616U 16040T   19039.91563063  .00001147  00000-0  48731-4 0  9994
2 41616  97.3900 107.0882 0011703 124.6063 235.6280 15.25038385146296
1 41616U 16040T   19039.98124494  .00001138  00000-0  48368-4 0  9998
2 41616  97.3900 107.1529 0011707 124.4136 235.8210 15.25038501146305
1 41616U 16040T   19040.83422923  .00001233  00000-0  52149-4 0  9990
2 41616  97.3899 107.9950 0011726 121.7607 238.4775 15.25041411146435
1 41616U 16040T   19041.75282690  .00001255  00000-0  53013-4 0  9992
2 41616  97.3898 108.9018 0011785 119.0049 241.2371 15.25043867146571
1 41616U 16040T   19042.14651165  .00001166  00000-0  49477-4 0  9993
2 41616  97.3898 109.2904 0011791 117.7919 242.4516 15.25044241146635
1 41616U 16040T   19042.86826637  .00001094  00000-0  46605-4 0  9990
2 41616  97.3897 110.0029 0011832 115.6342 244.6120 15.25045386146743
1 41616U 16040T   19043.39317801  .00001045  00000-0  44636-4 0  9995
2 41616  97.3896 110.5210 0011839 114.1377 246.1100 15.25046656146823
1 41616U 16040T   19043.85247536  .00001029  00000-0  43990-4 0  9997
2 41616  97.3895 110.9743 0011853 112.7358 247.5133 15.25047590146892
1 41616U 16040T   19044.83668194  .00001196  00000-0  50673-4 0  9994
2 41616  97.3893 111.9458 0011886 109.7123 250.5399 15.25050959147045
1 41616U 16040T   19045.16475068  .00001168  00000-0  49549-4 0  9996
2 41616  97.3893 112.2696 0011892 108.6982 251.5548 15.25051594147099
1 41616U 16040T   19045.88650126  .00001176  00000-0  49851-4 0  9990
2 41616  97.3892 112.9820 0011925 106.5369 253.7180 15.25053306147209
1 41616U 16040T   19046.14895573  .00001169  00000-0  49557-4 0  9992
2 41616  97.3891 113.2411 0011933 105.7415 254.5140 15.25053925147246
1 41616U 16040T   19046.87070548  .00001102  00000-0  46906-4 0  9991
2 41616  97.3890 113.9535 0011950 103.5648 256.6921 15.25055136147350
1 41616U 16040T   19047.46122744  .00001039  00000-0  44383-4 0  9999
2 41616  97.3889 114.5363 0011959 101.8144 258.4436 15.25056089147444
1 41616U 16040T   19047.78929463  .00001061  00000-0  45233-4 0  9997
2 41616  97.3888 114.8601 0011961 100.8187 259.4397 15.25057035147494
1 41616U 16040T   19048.83910830  .00001110  00000-0  47207-4 0  9990
2 41616  97.3886 115.8964 0011932  97.5247 262.7347 15.25060023147653
1 41616U 16040T   19048.90472164  .00001092  00000-0  46472-4 0  9993
2 41616  97.3886 115.9612 0011931  97.3482 262.9113 15.25060071147669
1 41616U 16040T   19049.62646771  .00001168  00000-0  49505-4 0  9994
2 41616  97.3886 116.6735 0011937  95.1382 265.1218 15.25062259147777
1 41616U 16040T   19050.15137385  .00001097  00000-0  46696-4 0  9999
2 41616  97.3884 117.1916 0011932  93.5030 266.7573 15.25063003147857
1 41616U 16040T   19050.93873203  .00001126  00000-0  47821-4 0  9995
2 41616  97.3883 117.9687 0011927  91.1463 269.1142 15.25064835147973
1 41616U 16040T   19051.39802380  .00001141  00000-0  48444-4 0  9993
2 41616  97.3882 118.4220 0011928  89.8331 270.4273 15.25065926148041
1 41616U 16040T   19051.92292801  .00001178  00000-0  49893-4 0  9992
2 41616  97.3880 118.9400 0011906  88.1977 272.0624 15.25067363148122
1 41616U 16040T   19052.38221886  .00001224  00000-0  51730-4 0  9993
2 41616  97.3880 119.3933 0011898  86.7855 273.4744 15.25068695148191
1 41616U 16040T   19052.64467045  .00001251  00000-0  52822-4 0  9994
2 41616  97.3879 119.6523 0011890  85.9890 274.2707 15.25069543148235
1 41616U 16040T   19052.84150896  .00001290  00000-0  54390-4 0  9994
2 41616  97.3879 119.8466 0011883  85.3610 274.8985 15.25070285148261
1 41616U 16040T   19053.82570286  .00001092  00000-0  46459-4 0  9999
2 41616  97.3878 120.8179 0011854  82.3005 277.9579 15.25071198148410
1 41616U 16040T   19054.87550718  .00001121  00000-0  47635-4 0  9993
2 41616  97.3876 121.8541 0011820  79.1534 281.1033 15.25073696148570
1 41616U 16040T   19055.13795797  .00001115  00000-0  47402-4 0  9996
2 41616  97.3876 122.1131 0011812  78.3606 281.8957 15.25074286148614
1 41616U 16040T   19055.92531042  .00001009  00000-0  43151-4 0  9993
2 41616  97.3874 122.8901 0011773  75.9810 284.2736 15.25075315148739
1 41616U 16040T   19056.18776086  .00001004  00000-0  42947-4 0  9998
2 41616  97.3874 123.1491 0011762  75.1761 285.0779 15.25075904148776
1 41616U 16040T   19056.64704910  .00001025  00000-0  43809-4 0  9997
2 41616  97.3873 123.6024 0011746  73.8237 286.4293 15.25076990148847
1 41616U 16040T   19057.76246253  .00001068  00000-0  45485-4 0  9991
2 41616  97.3872 124.7031 0011710  70.4023 289.8478 15.25079390149012
1 41616U 16040T   19057.89368766  .00001036  00000-0  44224-4 0  9994
2 41616  97.3871 124.8326 0011704  70.0119 290.2378 15.25079414149038
1 41616U 16040T   19058.81226192  .00001089  00000-0  46322-4 0  9992
2 41616  97.3870 125.7391 0011674  67.2484 292.9987 15.25081423149171
1 41616U 16040T   19059.79644598  .00001342  00000-0  56447-4 0  9995
2 41616  97.3868 126.7103 0011622  64.2145 296.0290 15.25085076149321
1 41616U 16040T   19060.38695621  .00001382  00000-0  58046-4 0  9996
2 41616  97.3867 127.2931 0011587  62.3994 297.8419 15.25086523149416
1 41616U 16040T   19060.84624063  .00001461  00000-0  61187-4 0  9997
2 41616  97.3866 127.7463 0011557  60.9001 299.3393 15.25088255149489
1 41616U 16040T   19061.43674898  .00001404  00000-0  58886-4 0  9993
2 41616  97.3865 128.3289 0011517  59.0012 301.2355 15.25089553149571
1 41616U 16040T   19061.89603213  .00001469  00000-0  61484-4 0  9995
2 41616  97.3864 128.7822 0011478  57.3741 302.8603 15.25091388149643
1 41616U 16040T   19062.48653835  .00001579  00000-0  65869-4 0  9999
2 41616  97.3864 129.3648 0011414  55.6451 304.5865 15.25093952149733
1 41616U 16040T   19062.88020964  .00001614  00000-0  67295-4 0  9999
2 41616  97.3862 129.7533 0011386  54.4880 305.7418 15.25095157149791
1 41616U 16040T   19063.79877385  .00001458  00000-0  61067-4 0  9994
2 41616  97.3861 130.6597 0011322  51.6617 308.5636 15.25097218149937
1 41616U 16040T   19064.71733635  .00001293  00000-0  54455-4 0  9996
2 41616  97.3858 131.5660 0011252  48.7846 311.4360 15.25099271150072
1 41616U 16040T   19065.17661680  .00001262  00000-0  53237-4 0  9990
2 41616  97.3857 132.0192 0011217  47.3104 312.9076 15.25100599150144
1 41616U 16040T   19065.83273051  .00001403  00000-0  58832-4 0  9997
2 41616  97.3856 132.6666 0011165  45.2416 314.9728 15.25103589150249
1 41616U 16040T   19066.48884392  .00001391  00000-0  58378-4 0  9996
2 41616  97.3855 133.3140 0011115  43.1897 317.0211 15.25105558150348
1 41616U 16040T   19067.80106895  .00001234  00000-0  52089-4 0  9997
2 41616  97.3853 134.6088 0011002  38.9783 321.2246 15.25108289150543
1 41616U 16040T   19068.45718054  .00001271  00000-0  53589-4 0  9992
2 41616  97.3852 135.2561 0010949  36.8477 323.3511 15.25110112150648
1 41616U 16040T   19068.85084639  .00001347  00000-0  56601-4 0  9993
2 41616  97.3851 135.6446 0010906  35.4379 324.7582 15.25111737150706
1 41616U 16040T   19069.17890137  .00001330  00000-0  55943-4 0  9997
2 41616  97.3850 135.9683 0010872  34.3353 325.8585 15.25112589150759
1 41616U 16040T   19069.83501115  .00001443  00000-0  60413-4 0  9998
2 41616  97.3849 136.6156 0010797  32.2487 327.9409 15.25114886150852
1 41616U 16040T   19070.42550952  .00001114  00000-0  47296-4 0  9997
2 41616  97.3849 137.1981 0010721  30.3671 329.8186 15.25114606150948
1 41616U 16040T   19070.81917493  .00001061  00000-0  45186-4 0  9994
2 41616  97.3848 137.5865 0010686  29.1052 331.0779 15.25115231151007
1 41616U 16040T   19071.47528359  .00000976  00000-0  41809-4 0  9998
2 41616  97.3847 138.2338 0010615  27.0035 333.1754 15.25116218151102
1 41616U 16040T   19071.80333760  .00000960  00000-0  41173-4 0  9992
2 41616  97.3846 138.5575 0010578  25.9469 334.2298 15.25116866151152
1 41616U 16040T   19072.85310861  .00001157  00000-0  49014-4 0  9996
2 41616  97.3845 139.5932 0010483  22.4443 337.7252 15.25120476151316
1 41616U 16040T   19072.91871874  .00001242  00000-0  52400-4 0  9997
2 41616  97.3844 139.6579 0010489  22.1212 338.0477 15.25121253151328
1 41616U 16040T   19073.83726633  .00001306  00000-0  54975-4 0  9991
2 41616  97.3843 140.5642 0010397  19.0517 341.1108 15.25124029151465
1 41616U 16040T   19074.16531871  .00001298  00000-0  54653-4 0  9999
2 41616  97.3842 140.8878 0010363  17.9479 342.2122 15.25124861151513
1 41616U 16040T   19074.82142342  .00001288  00000-0  54239-4 0  9992
2 41616  97.3841 141.5351 0010289  15.6615 344.4939 15.25126322151615
1 41616U 16040T   19075.34630625  .00001303  00000-0  54814-4 0  9993
2 41616  97.3841 142.0530 0010228  13.9039 346.2479 15.25127763151691
1 41616U 16040T   19075.80557721  .00001462  00000-0  61160-4 0  9997
2 41616  97.3840 142.5060 0010181  12.3270 347.8215 15.25130193151765
1 41616U 16040T   19076.46167805  .00001683  00000-0  69988-4 0  9991
2 41616  97.3838 143.1533 0010111  10.0326 350.1112 15.25133625151861
1 41616U 16040T   19076.85533885  .00001592  00000-0  66349-4 0  9996
2 41616  97.3837 143.5417 0010070   8.6214 351.5195 15.25134296151926
1 41616U 16040T   19077.44582939  .00001555  00000-0  64866-4 0  9997
2 41616  97.3836 144.1242 0010000   6.4577 353.6788 15.25135879152019
1 41616U 16040T   19077.83948885  .00001577  00000-0  65767-4 0  9991
2 41616  97.3836 144.5125 0009957   5.0622 355.0714 15.25137367152073
1 41616U 16040T   19077.90509877  .00001559  00000-0  65037-4 0  9993
2 41616  97.3836 144.5772 0009945   4.8082 355.3249 15.25137474152081
1 41616U 16040T   19078.49558830  .00001404  00000-0  58851-4 0  9996
2 41616  97.3835 145.1597 0009886   2.6739 357.4550 15.25138368152172
1 41616U 16040T   19078.62680800  .00001391  00000-0  58317-4 0  9996
2 41616  97.3835 145.2892 0009874   2.2100 357.9180 15.25138722152196
1 41616U 16040T   19079.15168656  .00001624  00000-0  67625-4 0  9996
2 41616  97.3860 145.8091 0009897   1.1826 358.9478 15.25141623152273
